STARLINK-30868          
1 58390U 23178S   26176.51722251  .00004695  00000+0  15001-3 0  9996
2 58390  53.1578 218.5739 0001431  74.9845 285.1316 15.34397168146427
STARLINK-30916          
1 58391U 23178T   26176.53193389  .00000559  00000+0  27660-4 0  9993
2 58391  53.1587 218.5623 0000945  84.1286 275.9824 15.34401614146424
STARLINK-30939          
1 58393U 23178V   26176.44157341 -.00001059  00000+0 -20227-4 0  9993
2 58393  53.1588 218.8100 0001282  92.2356 267.8794 15.34383111146284
STARLINK-30887          
1 58394U 23178W   26176.54244896  .00000769  00000+0  33881-4 0  9992
2 58394  53.1590 218.5551 0001238  90.3152 269.7993 15.34400389146402
STARLINK-30934          
1 58395U 23178X   26176.39119124 -.00002310  00000+0 -57282-4 0  9998
2 58395  53.1589 219.2825 0001128  77.4690 282.6438 15.34378439146334
STARLINK-30964          
1 58402U 23180A   26176.42912610 -.00001100  00000+0 -30460-4 0  9990
2 58402  43.0036 164.0691 0001763 259.6075 100.4578 15.27574213144107
STARLINK-30844          
1 58403U 23180B   26176.64969825  .00000696  00000+0  34793-4 0  9995
2 58403  43.0004 163.1471 0001160 267.6884  92.3835 15.27579893144011
STARLINK-30876          
1 58404U 23180C   26176.25352955  .00003185  00000+0  12523-3 0  9995
2 58404  43.0009 165.3335 0001240 267.8209  92.2501 15.27575554144077
STARLINK-30952          
1 58405U 23180D   26176.43940406 -.00000785  00000+0 -18996-4 0  9996
2 58405  43.0018 164.1490 0001588 285.7399  74.3277 15.27576522143998
STARLINK-30925          
1 58406U 23180E   26176.24581823  .00004664  00000+0  17888-3 0  9996
2 58406  43.0005 165.2742 0001391 279.3339  80.7355 15.27587603143958
STARLINK-30954          
1 58407U 23180F   26175.96498063  .00001080  00000+0  48697-4 0  9990
2 58407  42.9969 166.6088 0000392 100.8344 259.2551 15.27605553144034
STARLINK-30906          
1 58408U 23180G   26176.66459780  .00000811  00000+0  38983-4 0  9990
2 58408  42.9993 166.4962 0001216 272.6098  87.4614 15.27576512143987
STARLINK-30940          
1 58409U 23180H   26176.26398366  .00001013  00000+0  46328-4 0  9996
2 58409  43.0020  19.9442 0001040 275.1025  84.9708 15.27580508145785
STARLINK-30933          
1 58410U 23180J   26176.60233571 -.00000347  00000+0 -30832-5 0  9997
2 58410  43.0054  17.3123 0001343 262.9094  97.1605 15.27577068145844
STARLINK-30919          
1 58411U 23180K   26176.66367485  .00002329  00000+0  94140-4 0  9997
2 58411  43.0041 162.3182 0000775 269.5033  90.5730 15.27571730144048
STARLINK-30924          
1 58412U 23180L   26176.83335647  .00155999  00000+0  27676-2 0  9992
2 58412  42.9962   3.3441 0018090 286.7964 122.6854 15.48776101  5934
STARLINK-30931          
1 58413U 23180M   26176.61889351  .00001215  00000+0  53668-4 0  9998
2 58413  43.0014 151.7650 0001148 273.1894  86.8826 15.27583594144262
STARLINK-30922          
1 58414U 23180N   26176.24966622  .00000814  00000+0  39110-4 0  9995
2 58414  43.0010 165.2877 0001238 275.4046  84.6664 15.27582247144073
STARLINK-30949          
1 58415U 23180P   26176.23938441  .00001200  00000+0  53108-4 0  9996
2 58415  43.0014 165.1966 0001482 277.6399  82.4284 15.27581217144072
STARLINK-30967          
1 58416U 23180Q   26176.23554933  .00000975  00000+0  44969-4 0  9990
2 58416  43.0041 165.1875 0002231 285.3605  74.7000 15.27575219144076
STARLINK-30955          
1 58417U 23180R   26176.66111735  .00000106  00000+0  13357-4 0  9990
2 58417  43.0006 162.3580 0000805 276.5660  83.5100 15.27574526144145
STARLINK-30895          
1 58418U 23180S   26175.96756405  .00002726  00000+0  10851-3 0  9997
2 58418  43.0049 166.6307 0001641 289.3487  70.7187 15.27595354143925
STARLINK-30917          
1 58419U 23180T   26176.36073397  .00007101  00000+0  26747-3 0  9998
2 58419  43.0076  55.6898 0000301 292.0504  68.0316 15.27563214145365
STARLINK-30899          
1 58420U 23180U   26176.27651264 -.00000502  00000+0 -87333-5 0  9995
2 58420  43.0035 164.6449 0001159 265.3990  94.6729 15.27577760143967
STARLINK-30902          
1 58421U 23180V   26175.97013392  .00000833  00000+0  39809-4 0  9995
2 58421  43.0034 166.6418 0001630 271.8150  88.2515 15.27579906143921
STARLINK-30912          
1 58422U 23180W   26176.61596204 -.00004557  00000+0 -15607-3 0  9994
2 58422  43.0065  20.7880 0001866 270.8848  89.1790 15.27599284145808
STARLINK-30900          
1 58423U 23180X   26175.96370011  .00001834  00000+0  76161-4 0  9994
2 58423  43.0033 166.5470 0001552 271.4305  88.6369 15.27580119143929
STARLINK-30908          
1 58424U 23180Y   26175.96626639  .00000484  00000+0  27126-4 0  9992
2 58424  43.0041 166.5241 0001645 280.2258  79.8408 15.27578980144035
STARLINK-30869          
1 58437U 23183A   26176.64461330  .00000314  00000+0  20917-4 0  9993
2 58437  42.9975 152.0352 0000094  38.1902 321.8956 15.27579884143243
STARLINK-30969          
1 58438U 23183B   26176.64075125  .00007490  00000+0  28134-3 0  9997
2 58438  43.0007 152.0075 0001643 270.7570  89.3093 15.27590314143249
STARLINK-30951          
1 58439U 23183C   26176.64846709  .00000363  00000+0  22693-4 0  9999
2 58439  43.0020 152.0660 0000772 275.8958  84.1805 15.27575225143241
STARLINK-30950          
1 58440U 23183D   26176.71134858  .00000751  00000+0  36797-4 0  9995
2 58440  43.0031 315.0803 0001574 284.6081  75.4597 15.27590332145554
STARLINK-30942          
1 58441U 23183E   26176.21374340  .00000754  00000+0  36930-4 0  9995
2 58441  43.0008 153.9617 0001601 271.6914  88.3754 15.27580121143183
STARLINK-30959          
1 58442U 23183F   26176.61633979  .00000634  00000+0  32548-4 0  9994
2 58442  42.9999 151.8226 0001209 272.6824  87.3889 15.27581158143245
STARLINK-30971          
1 58443U 23183G   26176.20874551  .00001434  00000+0  61635-4 0  9991
2 58443  43.0036 154.7764 0001888 279.2423  80.8215 15.27580422143176
STARLINK-30963          
1 58444U 23183H   26176.62020328 -.00000319  00000+0 -20543-5 0  9990
2 58444  43.0005 151.8449 0001218 277.5832  82.4881 15.27579213143244
STARLINK-30961          
1 58445U 23183J   26176.62404524  .00000945  00000+0  43843-4 0  9995
2 58445  43.0003 151.8731 0001214 273.8330  86.2382 15.27581463143243
STARLINK-30975          
1 58446U 23183K   26176.62275995  .00001107  00000+0  49752-4 0  9990
2 58446  42.9999 151.8563 0001187 273.5800  86.4916 15.27582175143265
STARLINK-30976          
1 58447U 23183L   26176.24330199 -.00000279  00000+0 -61859-6 0  9992
2 58447  43.0017 154.2090 0001176 264.4837  95.5881 15.27578689143186
STARLINK-30926          
1 58448U 23183M   26176.41247027  .00004405  00000+0  16962-3 0  9994
2 58448  43.0006 152.8307 0001009 264.2213  95.8524 15.27558169143213
STARLINK-30943          
1 58449U 23183N   26176.84769808  .00002714  00000+0  10811-3 0  9996
2 58449  43.0049 124.9372 0001242 274.7667  85.3043 15.27576870143579
STARLINK-30946          
1 58450U 23183P   26176.63689725  .00000606  00000+0  31540-4 0  9995
2 58450  43.0023 151.9721 0001104 268.8995  91.1730 15.27579899143242
STARLINK-30944          
1 58451U 23183Q   26176.62790022  .00044138  00000+0  16035-2 0  9996
2 58451  42.9972 151.9069 0001701 268.8634  91.2023 15.27586834143212
STARLINK-30928          
1 58452U 23183R   26176.63175563  .00000242  00000+0  18294-4 0  9994
2 58452  42.9993 151.9328 0000952 283.5269  76.5476 15.27588767143236
STARLINK-30957          
1 58453U 23183S   26176.62662208 -.00000711  00000+0 -16318-4 0  9999
2 58453  43.0018 151.8991 0000801 261.1652  98.9109 15.27576252143241
STARLINK-30966          
1 58454U 23183T   26176.23815058 -.00000138  00000+0  45109-5 0  9993
2 58454  42.9998 154.1380 0000818 275.3345  84.7413 15.27578642143188
STARLINK-30935          
1 58455U 23183U   26176.65873995  .00001015  00000+0  46414-4 0  9997
2 58455  43.0050 152.1342 0002025 284.9948  75.0680 15.27581995143244
STARLINK-30958          
1 58457U 23183W   26176.22016430  .00000651  00000+0  33187-4 0  9993
2 58457  43.0002 154.0055 0001180 265.6519  94.4198 15.27583492143182
STARLINK-30962          
1 58458U 23183X   26176.21245617  .00001184  00000+0  52568-4 0  9990
2 58458  43.0048 153.9531 0001592 274.3644  85.7025 15.27579070143182
STARLINK-30977          
1 58459U 23183Y   26176.66259352  .00002593  00000+0  10371-3 0  9991
2 58459  43.0029 152.1592 0001840 269.2194  90.8446 15.27584721143249
STARLINK-30947          
1 58473U 23186A   26176.30938410  .00000720  00000+0  35694-4 0  9996
2 58473  43.0007 179.4183 0001257 269.3476  90.7232 15.27576057142317
STARLINK-30941          
1 58475U 23186C   26175.72347280  .00000711  00000+0  35368-4 0  9990
2 58475  43.0009 182.7599 0001264 272.0210  88.0497 15.27580343142220
STARLINK-30980          
1 58476U 23186D   26175.98887320  .00014994  00000+0  55302-3 0  9990
2 58476  43.0013 181.3088 0001097 267.9794  92.0932 15.27596300142261
STARLINK-30965          
1 58477U 23186E   26176.67907365  .00000463  00000+0  26343-4 0  9990
2 58477  43.0055 162.3303 0001632 278.2010  81.8657 15.27580620142547
STARLINK-30990          
1 58478U 23186F   26176.30554157 -.00000061  00000+0  73171-5 0  9995
2 58478  42.9996 179.3861 0001007 268.8393  91.2343 15.27585007142352
STARLINK-30984          
1 58480U 23186H   26176.46748172  .00001603  00000+0  67729-4 0  9990
2 58480  43.0013 174.6086 0001311 265.4772  94.5930 15.27589296142381
STARLINK-30956          
1 58481U 23186J   26176.65222433  .00000740  00000+0  36410-4 0  9993
2 58481  43.0033 151.5631 0001344 267.7134  92.3564 15.27582064142663
STARLINK-30997          
1 58482U 23186K   26176.30474980  .00017645  00000+0  64895-3 0  9991
2 58482  43.0008 175.9401 0000871  93.4863 266.6089 15.27592147142355
STARLINK-30994          
1 58483U 23186L   26176.52146171  .00062805  00000+0  18823-2 0  9991
2 58483  42.9987   9.6232 0008460 270.3302  89.6582 15.33620240144313
